COSMOS 2251 DEB         
1 33797U 93036AN  17345.87625384  .00000290  00000-0  82331-4 0  9995
2 33797  74.0494 125.7934 0074164 234.2513 248.3338 14.48438363466003
